H1 CPF  1  MCC 2022 10 21 15  7941 larets
H2  0304206 5557    27944 2022 10 20 23 45 00 2022 10 25 23 57 00   180 1 1  0 0 0
H9
10 0 59876 85500.000000 0     -5675466.922     -4162142.903      -543922.407
10 0 59876 85680.000000 0     -5653347.240     -3795784.702     -1861115.797
10 0 59876 85860.000000 0     -5413705.965     -3294457.895     -3109958.493
10 0 59876 86040.000000 0     -4962221.904     -2682180.269     -4244683.445
10 0 59876 86220.000000 0     -4313000.659     -1986744.825     -5223828.424
10 0 59877     0.000000 0     -3488083.679     -1238453.642     -6011749.417
10 0 59877   180.000000 0     -2516639.052      -468789.745     -6579885.499
10 0 59877   360.000000 0     -1433878.767       290908.414     -6907738.804
10 0 59877   540.000000 0      -279753.319      1010710.752     -6983551.113
10 0 59877   720.000000 0       902521.201      1663255.715     -6804678.270
10 0 59877   900.000000 0      2068063.248      2224772.926     -6377668.270
10 0 59877  1080.000000 0      3172013.694      2675941.729     -5718035.630
10 0 59877  1260.000000 0      4171251.442      3002555.570     -4849730.253
10 0 59877  1440.000000 0      5026082.366      3195973.112     -3804316.923
10 0 59877  1620.000000 0      5701842.588      3253338.903     -2619870.503
10 0 59877  1800.000000 0      6170340.963      3177561.811     -1339615.260
10 0 59877  1980.000000 0      6411074.650      2977047.726       -10347.550
10 0 59877  2160.000000 0      6412148.258      2665192.288      1319298.511
10 0 59877  2340.000000 0      6170845.299      2259658.805      2600666.200
10 0 59877  2520.000000 0      5693823.378      1781483.221      3786894.983
10 0 59877  2700.000000 0      4996918.127      1254047.269      4834662.710
10 0 59877  2880.000000 0      4104571.823       701977.178      5705769.504
10 0 59877  3060.000000 0      3048925.885       150024.322      6368510.002
10 0 59877  3240.000000 0      1868618.221      -378018.428      6798785.989
10 0 59877  3420.000000 0       607350.805      -860317.423      6980938.448
10 0 59877  3600.000000 0      -687730.021     -1277885.203      6908288.171
10 0 59877  3780.000000 0     -1967783.460     -1615320.937      6583367.421
10 0 59877  3960.000000 0     -3184095.346     -1861378.239      6017845.129
10 0 59877  4140.000000 0     -4289922.391     -2009343.764      5232155.979
10 0 59877  4320.000000 0     -5242312.128     -2057220.462      4254820.127
10 0 59877  4500.000000 0     -6003816.780     -2007700.040      3121453.412
10 0 59877  4680.000000 0     -6544026.330     -1867921.497      1873500.164
10 0 59877  4860.000000 0     -6840856.895     -1649029.197       556721.870
10 0 59877  5040.000000 0     -6881514.915     -1365543.918      -780515.843
10 0 59877  5220.000000 0     -6663075.118     -1034576.124     -2089076.693
10 0 59877  5400.000000 0     -6192639.118      -674926.563     -3320921.543
10 0 59877  5580.000000 0     -5487070.082      -306124.503     -4430923.438
10 0 59877  5760.000000 0     -4572319.666        52549.697     -5378548.003
10 0 59877  5940.000000 0     -3482391.229       383003.323     -6129326.419
10 0 59877  6120.000000 0     -2257999.084       669183.102     -6656068.903
10 0 59877  6300.000000 0      -944997.869       897803.069     -6939788.913
10 0 59877  6480.000000 0       407353.275      1058922.793     -6970327.855
10 0 59877  6660.000000 0      1748226.043      1146357.089     -6746677.042
10 0 59877  6840.000000 0      3027112.604      1157906.273     -6277004.481
10 0 59877  7020.000000 0      4195712.664      1095400.803     -5578370.560
10 0 59877  7200.000000 0      5209751.691       964557.752     -4676144.578
10 0 59877  7380.000000 0      6030678.460       774655.983     -3603132.733
10 0 59877  7560.000000 0      6627173.520       538040.541     -2398426.127
10 0 59877  7740.000000 0      6976402.396       269475.788     -1106000.729
10 0 59877  7920.000000 0      7064948.075       -14624.522       226892.997
10 0 59877  8100.000000 0      6889365.370      -297051.678      1551483.431
10 0 59877  8280.000000 0      6456329.748      -560699.127      2819300.740
10 0 59877  8460.000000 0      5782364.572      -789454.425      3983990.369
10 0 59877  8640.000000 0      4893164.501      -969038.027      5003028.591
10 0 59877  8820.000000 0      3822560.247     -1087748.067      5839273.623
10 0 59877  9000.000000 0      2611176.379     -1137072.362      6462293.457
10 0 59877  9180.000000 0      1304853.848     -1112144.489      6849432.158
10 0 59877  9360.000000 0       -47099.082     -1012027.381      6986593.584
10 0 59877  9540.000000 0     -1393764.510      -839811.489      6868723.158
10 0 59877  9720.000000 0     -2684513.330      -602525.242      6499985.406
10 0 59877  9900.000000 0     -3870891.006      -310858.591      5893640.716
10 0 59877 10080.000000 0     -4908441.770        21292.062      5071618.846
10 0 59877 10260.000000 0     -5758410.458       377443.056      4063781.205
10 0 59877 10440.000000 0     -6389249.392       739285.604      2906881.078
10 0 59877 10620.000000 0     -6777863.397      1087561.350      1643249.520
10 0 59877 10800.000000 0     -6910532.800      1403010.750       319242.106
10 0 59877 10980.000000 0     -6783457.060      1667346.383     -1016499.913
10 0 59877 11160.000000 0     -6402877.301      1864198.508     -2314895.891
10 0 59877 11340.000000 0     -5784774.033      1979982.498     -3528290.659
10 0 59877 11520.000000 0     -4954152.093      2004641.458     -4612256.320
10 0 59877 11700.000000 0     -3943955.564      1932221.047     -5527238.873
10 0 59877 11880.000000 0     -2793685.665      1761253.556     -6239983.495
10 0 59877 12060.000000 0     -1547798.421      1494937.607     -6724699.012
10 0 59877 12240.000000 0      -253950.824      1141108.554     -6963931.918
10 0 59877 12420.000000 0      1038824.814       712004.592     -6949134.678
10 0 59877 12600.000000 0      2281959.717       223840.595     -6680938.904
10 0 59877 12780.000000 0      3429154.547      -303801.036     -6169122.883
10 0 59877 12960.000000 0      4438089.715      -848741.530     -5432272.510
10 0 59877 13140.000000 0      5271988.103     -1387115.300     -4497147.394
10 0 59877 13320.000000 0      5900985.050     -1894389.291     -3397759.310
10 0 59877 13500.000000 0      6303245.649     -2346451.239     -2174173.634
10 0 59877 13680.000000 0      6465775.593     -2720719.759      -871066.313
10 0 59877 13860.000000 0      6384880.909     -2997221.665       463914.451
10 0 59877 14040.000000 0      6066249.945     -3159581.525      1781918.285
10 0 59877 14220.000000 0      5524646.605     -3195870.350      3034721.856
10 0 59877 14400.000000 0      4783224.874     -3099266.908      4176529.912
10 0 59877 14580.000000 0      3872510.416     -2868496.762      5165665.243
10 0 59877 14760.000000 0      2829106.765     -2508035.399      5966085.072
10 0 59877 14940.000000 0      1694186.505     -2028063.811      6548666.659
10 0 59877 15120.000000 0       511845.867     -1444184.025      6892224.070
10 0 59877 15300.000000 0      -672611.871      -776908.651      6984236.781
10 0 59877 15480.000000 0     -1814399.687       -50941.760      6821278.304
10 0 59877 15660.000000 0     -2870922.827       705725.760      6409143.550
10 0 59877 15840.000000 0     -3803360.405      1462881.170      5762671.793
10 0 59877 16020.000000 0     -4578106.031      2189282.364      4905263.204
10 0 59877 16200.000000 0     -5168019.255      2853940.998      3868087.813
10 0 59877 16380.000000 0     -5553431.097      3427446.886      2688994.364
10 0 59877 16560.000000 0     -5722857.076      3883274.842      1411150.669
10 0 59877 16740.000000 0     -5673380.975      4199013.670        81452.254
10 0 59877 16920.000000 0     -5410676.203      4357445.795     -1251241.417
10 0 59877 17100.000000 0     -4948661.951      4347420.108     -2537962.974
10 0 59877 17280.000000 0     -4308803.575      4164465.700     -3731503.265
10 0 59877 17460.000000 0     -3519097.254      3811110.845     -4788188.686
10 0 59877 17640.000000 0     -2612805.001      3296900.039     -5669488.501
10 0 59877 17820.000000 0     -1627016.531      2638118.420     -6343395.307
10 0 59877 18000.000000 0      -601103.786      1857240.632     -6785542.597
10 0 59877 18180.000000 0       424861.672       982131.899     -6980024.758
10 0 59877 18360.000000 0      1411662.712        45040.261     -6919916.178
10 0 59877 18540.000000 0      2322419.008      -918588.856     -6607488.063
10 0 59877 18720.000000 0      3123947.636     -1871439.633     -6054116.560
10 0 59877 18900.000000 0      3787963.454     -2775751.055     -5279893.492
10 0 59877 19080.000000 0      4292087.997     -3594804.589     -4312943.556
10 0 59877 19260.000000 0      4620623.644     -4294419.127     -3188446.195
10 0 59877 19440.000000 0      4765064.375     -4844388.131     -1947393.702
10 0 59877 19620.000000 0      4724320.881     -5219800.392      -635112.399
10 0 59877 19800.000000 0      4504636.655     -5402175.688       700405.758
10 0 59877 19980.000000 0      4119194.940     -5380349.651      2010291.832
10 0 59877 20160.000000 0      3587434.542     -5151058.660      3246629.858
10 0 59877 20340.000000 0      2934110.258     -4719196.038      4364241.124
10 0 59877 20520.000000 0      2188152.111     -4097729.155      5322348.373
10 0 59877 20700.000000 0      1381383.915     -3307285.631      6086053.436
10 0 59877 20880.000000 0       547162.593     -2375433.244      6627577.681
10 0 59877 21060.000000 0      -280998.970     -1335691.439      6927226.422
10 0 59877 21240.000000 0     -1070766.083      -226318.052      6974064.573
10 0 59877 21420.000000 0     -1792230.200       911092.007      6766296.657
10 0 59877 21600.000000 0     -2419033.372      2033151.352      6311340.408
10 0 59877 21780.000000 0     -2929333.181      3096320.513      5625593.229
10 0 59877 21960.000000 0     -3306578.392      4058596.119      4733893.233
99
